ONEWEB-0282             
1 49000U 21060AK  25243.16803287  .00000035  00000+0  58789-4 0  9991
2 49000  87.9001 286.5895 0001713  92.5419 267.5908 13.16593881201448
ONEWEB-0283             
1 49001U 21060AL  25243.15695203 -.00000048  00000+0 -15993-3 0  9993
2 49001  87.8995 286.5950 0001797  88.9044 271.2293 13.16594481201454
ONEWEB-0284             
1 49002U 21060AM  25243.15062230  .00000040  00000+0  69876-4 0  9992
2 49002  87.9012 286.5750 0001801 102.7513 257.3819 13.16594574201436
ONEWEB-0285             
1 49075U 21075A   25243.20661344  .00000249  00000+0  65623-3 0  9991
2 49075  87.8876  48.2807 0001647  93.1400 266.9918 13.12443210197172
ONEWEB-0286             
1 49076U 21075B   25243.18846138 -.00000573  00000+0 -16292-2 0  9994
2 49076  87.8888  48.3180 0001870  95.0742 265.0600 13.12442257196525
ONEWEB-0287             
1 49077U 21075C   25243.24235971  .00000043  00000+0  78420-4 0  9992
2 49077  87.9038  63.5470 0002043 100.3029 259.8333 13.17647565195444
ONEWEB-0288             
1 49078U 21075D   25243.16429272 -.00000015  00000+0 -77096-4 0  9992
2 49078  87.8876  48.2838 0001662  97.3989 262.7329 13.12441784197145
ONEWEB-0289             
1 49079U 21075E   25243.20508035 -.00000203  00000+0 -55658-3 0  9991
2 49079  87.9021  63.5815 0001321  98.6530 261.4752 13.17650012196014
ONEWEB-0290             
1 49080U 21075F   25243.25415923  .00000136  00000+0  31683-3 0  9996
2 49080  87.9030  63.5251 0001086  92.7988 267.3267 13.17648009195434
ONEWEB-0291             
1 49081U 21075G   25243.23899909  .00000077  00000+0  16393-3 0  9990
2 49081  87.9037  63.5323 0001751 103.9359 256.1968 13.17646559195429
ONEWEB-0293             
1 49082U 21075H   25243.26430296  .00000077  00000+0  16418-3 0  9992
2 49082  87.9026  63.5579 0001581  92.7155 267.4158 13.17649752195458
ONEWEB-0294             
1 49083U 21075J   25242.94206836 -.00000258  00000+0 -75362-3 0  9994
2 49083  87.8877  48.3285 0001329 106.0536 254.0739 13.12441763196500
ONEWEB-0295             
1 49084U 21075K   25242.95969133  .00000074  00000+0  15825-3 0  9994
2 49084  87.9034  63.6210 0001827 101.6864 258.4473 13.17650750195373
ONEWEB-0296             
1 49085U 21075L   25243.15131977  .00000363  00000+0  97320-3 0  9996
2 49085  87.8874  48.2927 0001712 111.5982 248.5329 13.12441983196533
ONEWEB-0297             
1 49086U 21075M   25243.18213265 -.00000366  00000+0 -10538-2 0  9991
2 49086  87.8873  48.3250 0001793  94.1662 265.9672 13.12443055197147
ONEWEB-0298             
1 49087U 21075N   25243.26779836 -.00001146  00000+0 -29868-2 0  9995
2 49087  87.9026  63.5550 0001763  90.6044 269.5289 13.17639042195446
ONEWEB-0299             
1 49088U 21075P   25243.19341920  .00000046  00000+0  85001-4 0  9996
2 49088  87.9035  63.5251 0001926  92.8187 267.3165 13.17649433195419
