[{"OBJECT_NAME":"ONEWEB-0282","OBJECT_ID":"2021-060AK","EPOCH":"2025-08-31T04:01:58.039968","MEAN_MOTION":13.16593881,"ECCENTRICITY":0.00017135,"INCLINATION":87.9001,"RA_OF_ASC_NODE":286.5895,"ARG_OF_PERICENTER":92.5419,"MEAN_ANOMALY":267.5908,"EPHEMERIS_TYPE":0,"CLASSIFICATION_TYPE":"U","NORAD_CAT_ID":49000,"ELEMENT_SET_NO":999,"REV_AT_EPOCH":20144,"BSTAR":5.8789355e-5,"MEAN_MOTION_DOT":3.5e-7,"MEAN_MOTION_DDOT":0},{"OBJECT_NAME":"ONEWEB-0283","OBJECT_ID":"2021-060AL","EPOCH":"2025-08-31T03:46:00.655392","MEAN_MOTION":13.16594481,"ECCENTRICITY":0.00017972,"INCLINATION":87.8995,"RA_OF_ASC_NODE":286.595,"ARG_OF_PERICENTER":88.9044,"MEAN_ANOMALY":271.2293,"EPHEMERIS_TYPE":0,"CLASSIFICATION_TYPE":"U","NORAD_CAT_ID":49001,"ELEMENT_SET_NO":999,"REV_AT_EPOCH":20145,"BSTAR":-0.0001599301,"MEAN_MOTION_DOT":-4.8e-7,"MEAN_MOTION_DDOT":0},{"OBJECT_NAME":"ONEWEB-0284","OBJECT_ID":"2021-060AM","EPOCH":"2025-08-31T03:36:53.766720","MEAN_MOTION":13.16594574,"ECCENTRICITY":0.00018011,"INCLINATION":87.9012,"RA_OF_ASC_NODE":286.575,"ARG_OF_PERICENTER":102.7513,"MEAN_ANOMALY":257.3819,"EPHEMERIS_TYPE":0,"CLASSIFICATION_TYPE":"U","NORAD_CAT_ID":49002,"ELEMENT_SET_NO":999,"REV_AT_EPOCH":20143,"BSTAR":6.9875896e-5,"MEAN_MOTION_DOT":4.0e-7,"MEAN_MOTION_DDOT":0},{"OBJECT_NAME":"ONEWEB-0285","OBJECT_ID":"2021-075A","EPOCH":"2025-08-31T04:57:31.401216","MEAN_MOTION":13.1244321,"ECCENTRICITY":0.00016479,"INCLINATION":87.8876,"RA_OF_ASC_NODE":48.2807,"ARG_OF_PERICENTER":93.14,"MEAN_ANOMALY":266.9918,"EPHEMERIS_TYPE":0,"CLASSIFICATION_TYPE":"U","NORAD_CAT_ID":49075,"ELEMENT_SET_NO":999,"REV_AT_EPOCH":19717,"BSTAR":0.00065623193,"MEAN_MOTION_DOT":2.49e-6,"MEAN_MOTION_DDOT":0},{"OBJECT_NAME":"ONEWEB-0286","OBJECT_ID":"2021-075B","EPOCH":"2025-08-31T04:31:23.063232","MEAN_MOTION":13.12442257,"ECCENTRICITY":0.000187,"INCLINATION":87.8888,"RA_OF_ASC_NODE":48.318,"ARG_OF_PERICENTER":95.0742,"MEAN_ANOMALY":265.06,"EPHEMERIS_TYPE":0,"CLASSIFICATION_TYPE":"U","NORAD_CAT_ID":49076,"ELEMENT_SET_NO":999,"REV_AT_EPOCH":19652,"BSTAR":-0.001629199,"MEAN_MOTION_DOT":-5.73e-6,"MEAN_MOTION_DDOT":0},{"OBJECT_NAME":"ONEWEB-0287","OBJECT_ID":"2021-075C","EPOCH":"2025-08-31T05:48:59.878944","MEAN_MOTION":13.17647565,"ECCENTRICITY":0.00020437,"INCLINATION":87.9038,"RA_OF_ASC_NODE":63.547,"ARG_OF_PERICENTER":100.3029,"MEAN_ANOMALY":259.8333,"EPHEMERIS_TYPE":0,"CLASSIFICATION_TYPE":"U","NORAD_CAT_ID":49077,"ELEMENT_SET_NO":999,"REV_AT_EPOCH":19544,"BSTAR":7.8419978e-5,"MEAN_MOTION_DOT":4.3e-7,"MEAN_MOTION_DDOT":0},{"OBJECT_NAME":"ONEWEB-0288","OBJECT_ID":"2021-075D","EPOCH":"2025-08-31T03:56:34.891008","MEAN_MOTION":13.12441784,"ECCENTRICITY":0.00016628,"INCLINATION":87.8876,"RA_OF_ASC_NODE":48.2838,"ARG_OF_PERICENTER":97.3989,"MEAN_ANOMALY":262.7329,"EPHEMERIS_TYPE":0,"CLASSIFICATION_TYPE":"U","NORAD_CAT_ID":49078,"ELEMENT_SET_NO":999,"REV_AT_EPOCH":19714,"BSTAR":-7.7095848e-5,"MEAN_MOTION_DOT":-1.5e-7,"MEAN_MOTION_DDOT":0},{"OBJECT_NAME":"ONEWEB-0289","OBJECT_ID":"2021-075E","EPOCH":"2025-08-31T04:55:18.942240","MEAN_MOTION":13.17650012,"ECCENTRICITY":0.00013217,"INCLINATION":87.9021,"RA_OF_ASC_NODE":63.5815,"ARG_OF_PERICENTER":98.653,"MEAN_ANOMALY":261.4752,"EPHEMERIS_TYPE":0,"CLASSIFICATION_TYPE":"U","NORAD_CAT_ID":49079,"ELEMENT_SET_NO":999,"REV_AT_EPOCH":19601,"BSTAR":-0.00055658028,"MEAN_MOTION_DOT":-2.03e-6,"MEAN_MOTION_DDOT":0},{"OBJECT_NAME":"ONEWEB-0290","OBJECT_ID":"2021-075F","EPOCH":"2025-08-31T06:05:59.357472","MEAN_MOTION":13.17648009,"ECCENTRICITY":0.00010863,"INCLINATION":87.903,"RA_OF_ASC_NODE":63.5251,"ARG_OF_PERICENTER":92.7988,"MEAN_ANOMALY":267.3267,"EPHEMERIS_TYPE":0,"CLASSIFICATION_TYPE":"U","NORAD_CAT_ID":49080,"ELEMENT_SET_NO":999,"REV_AT_EPOCH":19543,"BSTAR":0.00031683434,"MEAN_MOTION_DOT":1.36e-6,"MEAN_MOTION_DDOT":0},{"OBJECT_NAME":"ONEWEB-0291","OBJECT_ID":"2021-075G","EPOCH":"2025-08-31T05:44:09.521376","MEAN_MOTION":13.17646559,"ECCENTRICITY":0.00017517,"INCLINATION":87.9037,"RA_OF_ASC_NODE":63.5323,"ARG_OF_PERICENTER":103.9359,"MEAN_ANOMALY":256.1968,"EPHEMERIS_TYPE":0,"CLASSIFICATION_TYPE":"U","NORAD_CAT_ID":49081,"ELEMENT_SET_NO":999,"REV_AT_EPOCH":19542,"BSTAR":0.00016393409,"MEAN_MOTION_DOT":7.7e-7,"MEAN_MOTION_DDOT":0},{"OBJECT_NAME":"ONEWEB-0293","OBJECT_ID":"2021-075H","EPOCH":"2025-08-31T06:20:35.775744","MEAN_MOTION":13.17649752,"ECCENTRICITY":0.00015811,"INCLINATION":87.9026,"RA_OF_ASC_NODE":63.5579,"ARG_OF_PERICENTER":92.7155,"MEAN_ANOMALY":267.4158,"EPHEMERIS_TYPE":0,"CLASSIFICATION_TYPE":"U","NORAD_CAT_ID":49082,"ELEMENT_SET_NO":999,"REV_AT_EPOCH":19545,"BSTAR":0.00016418308,"MEAN_MOTION_DOT":7.7e-7,"MEAN_MOTION_DDOT":0},{"OBJECT_NAME":"ONEWEB-0294","OBJECT_ID":"2021-075J","EPOCH":"2025-08-30T22:36:34.706304","MEAN_MOTION":13.12441763,"ECCENTRICITY":0.00013299,"INCLINATION":87.8877,"RA_OF_ASC_NODE":48.3285,"ARG_OF_PERICENTER":106.0536,"MEAN_ANOMALY":254.0739,"EPHEMERIS_TYPE":0,"CLASSIFICATION_TYPE":"U","NORAD_CAT_ID":49083,"ELEMENT_SET_NO":999,"REV_AT_EPOCH":19650,"BSTAR":-0.00075361986,"MEAN_MOTION_DOT":-2.58e-6,"MEAN_MOTION_DDOT":0},{"OBJECT_NAME":"ONEWEB-0295","OBJECT_ID":"2021-075K","EPOCH":"2025-08-30T23:01:57.330912","MEAN_MOTION":13.1765075,"ECCENTRICITY":0.00018275,"INCLINATION":87.9034,"RA_OF_ASC_NODE":63.621,"ARG_OF_PERICENTER":101.6864,"MEAN_ANOMALY":258.4473,"EPHEMERIS_TYPE":0,"CLASSIFICATION_TYPE":"U","NORAD_CAT_ID":49084,"ELEMENT_SET_NO":999,"REV_AT_EPOCH":19537,"BSTAR":0.00015824823,"MEAN_MOTION_DOT":7.4e-7,"MEAN_MOTION_DDOT":0},{"OBJECT_NAME":"ONEWEB-0296","OBJECT_ID":"2021-075L","EPOCH":"2025-08-31T03:37:54.028128","MEAN_MOTION":13.12441983,"ECCENTRICITY":0.0001712,"INCLINATION":87.8874,"RA_OF_ASC_NODE":48.2927,"ARG_OF_PERICENTER":111.5982,"MEAN_ANOMALY":248.5329,"EPHEMERIS_TYPE":0,"CLASSIFICATION_TYPE":"U","NORAD_CAT_ID":49085,"ELEMENT_SET_NO":999,"REV_AT_EPOCH":19653,"BSTAR":0.00097320399,"MEAN_MOTION_DOT":3.63e-6,"MEAN_MOTION_DDOT":0},{"OBJECT_NAME":"ONEWEB-0297","OBJECT_ID":"2021-075M","EPOCH":"2025-08-31T04:22:16.260960","MEAN_MOTION":13.12443055,"ECCENTRICITY":0.00017931,"INCLINATION":87.8873,"RA_OF_ASC_NODE":48.325,"ARG_OF_PERICENTER":94.1662,"MEAN_ANOMALY":265.9672,"EPHEMERIS_TYPE":0,"CLASSIFICATION_TYPE":"U","NORAD_CAT_ID":49086,"ELEMENT_SET_NO":999,"REV_AT_EPOCH":19714,"BSTAR":-0.0010538095,"MEAN_MOTION_DOT":-3.66e-6,"MEAN_MOTION_DDOT":0},{"OBJECT_NAME":"ONEWEB-0298","OBJECT_ID":"2021-075N","EPOCH":"2025-08-31T06:25:37.778304","MEAN_MOTION":13.17639042,"ECCENTRICITY":0.00017632,"INCLINATION":87.9026,"RA_OF_ASC_NODE":63.555,"ARG_OF_PERICENTER":90.6044,"MEAN_ANOMALY":269.5289,"EPHEMERIS_TYPE":0,"CLASSIFICATION_TYPE":"U","NORAD_CAT_ID":49087,"ELEMENT_SET_NO":999,"REV_AT_EPOCH":19544,"BSTAR":-0.00298682,"MEAN_MOTION_DOT":-1.146e-5,"MEAN_MOTION_DDOT":0},{"OBJECT_NAME":"ONEWEB-0299","OBJECT_ID":"2021-075P","EPOCH":"2025-08-31T04:38:31.418880","MEAN_MOTION":13.17649433,"ECCENTRICITY":0.00019261,"INCLINATION":87.9035,"RA_OF_ASC_NODE":63.5251,"ARG_OF_PERICENTER":92.8187,"MEAN_ANOMALY":267.3165,"EPHEMERIS_TYPE":0,"CLASSIFICATION_TYPE":"U","NORAD_CAT_ID":49088,"ELEMENT_SET_NO":999,"REV_AT_EPOCH":19541,"BSTAR":8.5001432e-5,"MEAN_MOTION_DOT":4.6e-7,"MEAN_MOTION_DDOT":0}]
